{"fetched_at": "2026-05-06T14:56:24.502984+00:00", "line1": "1 52200U 22035A   26126.18665851  .00000040  00000+0  25299-4 0  9992", "line2": "2 52200  98.4075 135.3748 0001139  68.0495 292.0815 14.42218243214792"}
{"fetched_at": "2026-05-08T01:13:34.480007+00:00", "line1": "1 52200U 22035A   26127.71297218 -.00000111  00000+0 -20614-4 0  9997", "line2": "2 52200  98.4078 136.8792 0001113  68.3364 291.7944 14.42217835215011"}
{"fetched_at": "2026-05-20T19:18:52.961507+00:00", "line1": "1 52200U 22035A   26140.20098398  .00000106  00000+0  45396-4 0  9990", "line2": "2 52200  98.4065 149.1872 0000991  82.5246 277.6056 14.42219842216819"}
{"fetched_at": "2026-05-22T01:06:16.988206+00:00", "line1": "1 52200U 22035A   26140.96414045 -.00000242  00000+0 -60328-4 0  9999", "line2": "2 52200  98.4066 149.9394 0000966  82.9161 277.2138 14.42218766216922"}
{"fetched_at": "2026-05-25T17:27:17.958066+00:00", "line1": "1 52200U 22035A   26145.19618649  .00000167  00000+0  63926-4 0  9996", "line2": "2 52200  98.4072 154.1107 0000959  87.6005 272.5294 14.42220464217537"}
